[{"OBJECT_NAME":"ONEWEB-0425","OBJECT_ID":"2022-012G","EPOCH":"2026-03-09T22:03:40.551840","MEAN_MOTION":13.10374846,"ECCENTRICITY":0.0001593,"INCLINATION":87.8784,"RA_OF_ASC_NODE":56.0277,"ARG_OF_PERICENTER":76.7976,"MEAN_ANOMALY":283.3329,"EPHEMERIS_TYPE":0,"CLASSIFICATION_TYPE":"U","NORAD_CAT_ID":51628,"ELEMENT_SET_NO":999,"REV_AT_EPOCH":19632,"BSTAR":-0.0016151708,"MEAN_MOTION_DOT":-5.51e-6,"MEAN_MOTION_DDOT":0},{"OBJECT_NAME":"DELTA 1 DEB","OBJECT_ID":"1975-052Z","EPOCH":"2026-03-09T20:17:10.662720","MEAN_MOTION":12.75761945,"ECCENTRICITY":0.03574502,"INCLINATION":99.684,"RA_OF_ASC_NODE":12.4613,"ARG_OF_PERICENTER":42.3,"MEAN_ANOMALY":21.9256,"EPHEMERIS_TYPE":0,"CLASSIFICATION_TYPE":"U","NORAD_CAT_ID":21288,"ELEMENT_SET_NO":999,"REV_AT_EPOCH":62236,"BSTAR":0.0014410311,"MEAN_MOTION_DOT":3.68e-6,"MEAN_MOTION_DDOT":0}]
